BEIDOU-3 G3             
1 45807U 20040A   26117.01504794 -.00000362  00000+0  00000+0 0  9997
2 45807   2.3237  67.2979 0003763 329.8404 293.8276  1.00270278 21559
APSTAR-6D               
1 45863U 20045A   26117.47393676  .00000000  00000+0  00000+0 0  9997
2 45863   0.0197 110.2256 0002800 352.8327  57.0891  1.00263288 21353
KOREASAT 116            
1 45920U 20048A   26117.01617462 -.00000373  00000+0  00000+0 0  9990
2 45920   0.0153 270.8670 0000923 117.3883 308.7674  1.00274437 21125
EXPRESS 103             
1 45985U 20053A   26117.20233531 -.00000290  00000+0  00000+0 0  9997
2 45985   0.0125 254.3704 0000509  21.3478 108.8166  1.00270081 21131
EXPRESS 80              
1 45986U 20053B   26115.18553025 -.00000156  00000+0  00000+0 0  9997
2 45986   0.0270 249.3709 0003100 289.3898 181.2309  1.00297153 21092
BREEZE-M R/B            
1 45987U 20053C   26117.07524164 -.00000182  00000+0  00000+0 0  9999
2 45987   7.3773  78.9408 4345778  76.7813 327.0304  1.03581607 21719
BSAT-4B                 
1 46112U 20056A   26117.12058527 -.00000360  00000+0  00000+0 0  9992
2 46112   0.0710 107.5878 0003123 346.3959 274.3642  1.00270445 20876
MEV-2                   
1 46113U 20056B   26117.22267126  .00000000  00000+0  00000+0 0  9991
2 46113   0.0153  73.7645 0001266   0.9311 219.6436  1.00270002 80020
GALAXY 30 (G-30)        
1 46114U 20056C   26117.03966138  .00000000  00000+0  00000+0 0  9990
2 46114   0.0126 236.3465 0002527 172.8147  55.1468  1.00271333 20788
ATLAS 5 CENTAUR DEB     
1 46602U 18079CA  26115.24030323 -.00000104  00000+0  00000+0 0  9999
2 46602  13.4484  43.5475 4676258 293.7601  24.7602  1.79056256 39035
ATLAS 5 CENTAUR DEB     
1 46604U 18079CC  26116.16049554 -.00000076  00000+0  00000+0 0  9997
2 46604  13.4001  57.4780 4602406 262.0612  45.2077  1.74520059 40993
GAOFEN-13 01            
1 46610U 20071A   26117.49759538 -.00000371  00000+0  00000+0 0  9994
2 46610   0.3915  84.9549 0042009 122.6784 305.1685  1.00275730 20411
ATLAS 5 CENTAUR DEB     
1 46657U 18079CK  26116.64681784 -.00000173  00000+0  00000+0 0  9993
2 46657  12.2409  25.7057 5765854 335.4317   5.6365  1.70496000 34458
ATLAS 5 CENTAUR DEB     
1 46846U 18079DB  26114.95489035 -.00000085  00000+0  00000+0 0  9992
2 46846  12.3482  67.3576 4723348 258.7823  46.5020  1.71842066 34380
ATLAS 5 CENTAUR DEB     
1 46847U 18079DC  26114.95836736 -.00000100  00000+0  00000+0 0  9995
2 46847  13.5147  46.1269 4704981 287.0400  27.9633  1.77284730 35494
ATLAS 5 CENTAUR DEB     
1 46852U 18079DH  26116.67589662 -.00000158  00000+0  00000+0 0  9998
2 46852  14.0698  28.9875 5043592 325.7702  10.2499  1.80930675 24873
ATLAS 5 CENTAUR DEB     
1 46857U 18079DN  26114.90083548 -.00000065  00000+0  00000+0 0  9996
2 46857  12.5264  78.1201 4634208 228.6780  81.0779  1.69095455 33823
