[{"OBJECT_NAME":"BEIDOU-3 G3","OBJECT_ID":"2020-040A","EPOCH":"2026-04-27T00:21:40.142016","MEAN_MOTION":1.00270278,"ECCENTRICITY":0.0003763,"INCLINATION":2.3237,"RA_OF_ASC_NODE":67.2979,"ARG_OF_PERICENTER":329.8404,"MEAN_ANOMALY":293.8276,"EPHEMERIS_TYPE":0,"CLASSIFICATION_TYPE":"U","NORAD_CAT_ID":45807,"ELEMENT_SET_NO":999,"REV_AT_EPOCH":2155,"BSTAR":0,"MEAN_MOTION_DOT":-3.62e-6,"MEAN_MOTION_DDOT":0},{"OBJECT_NAME":"APSTAR-6D","OBJECT_ID":"2020-045A","EPOCH":"2026-04-27T11:22:28.136064","MEAN_MOTION":1.00263288,"ECCENTRICITY":0.00028,"INCLINATION":0.0197,"RA_OF_ASC_NODE":110.2256,"ARG_OF_PERICENTER":352.8327,"MEAN_ANOMALY":57.0891,"EPHEMERIS_TYPE":0,"CLASSIFICATION_TYPE":"U","NORAD_CAT_ID":45863,"ELEMENT_SET_NO":999,"REV_AT_EPOCH":2135,"BSTAR":0,"MEAN_MOTION_DOT":0,"MEAN_MOTION_DDOT":0},{"OBJECT_NAME":"KOREASAT 116","OBJECT_ID":"2020-048A","EPOCH":"2026-04-27T00:23:17.487168","MEAN_MOTION":1.00274437,"ECCENTRICITY":9.236e-5,"INCLINATION":0.0153,"RA_OF_ASC_NODE":270.867,"ARG_OF_PERICENTER":117.3883,"MEAN_ANOMALY":308.7674,"EPHEMERIS_TYPE":0,"CLASSIFICATION_TYPE":"U","NORAD_CAT_ID":45920,"ELEMENT_SET_NO":999,"REV_AT_EPOCH":2112,"BSTAR":0,"MEAN_MOTION_DOT":-3.73e-6,"MEAN_MOTION_DDOT":0},{"OBJECT_NAME":"EXPRESS 103","OBJECT_ID":"2020-053A","EPOCH":"2026-04-27T04:51:21.770784","MEAN_MOTION":1.00270081,"ECCENTRICITY":5.09e-5,"INCLINATION":0.0125,"RA_OF_ASC_NODE":254.3704,"ARG_OF_PERICENTER":21.3478,"MEAN_ANOMALY":108.8166,"EPHEMERIS_TYPE":0,"CLASSIFICATION_TYPE":"U","NORAD_CAT_ID":45985,"ELEMENT_SET_NO":999,"REV_AT_EPOCH":2113,"BSTAR":0,"MEAN_MOTION_DOT":-2.9e-6,"MEAN_MOTION_DDOT":0},{"OBJECT_NAME":"EXPRESS 80","OBJECT_ID":"2020-053B","EPOCH":"2026-04-25T04:27:09.813600","MEAN_MOTION":1.00297153,"ECCENTRICITY":0.00031002,"INCLINATION":0.027,"RA_OF_ASC_NODE":249.3709,"ARG_OF_PERICENTER":289.3898,"MEAN_ANOMALY":181.2309,"EPHEMERIS_TYPE":0,"CLASSIFICATION_TYPE":"U","NORAD_CAT_ID":45986,"ELEMENT_SET_NO":999,"REV_AT_EPOCH":2109,"BSTAR":0,"MEAN_MOTION_DOT":-1.56e-6,"MEAN_MOTION_DDOT":0},{"OBJECT_NAME":"BREEZE-M R/B","OBJECT_ID":"2020-053C","EPOCH":"2026-04-27T01:48:20.877696","MEAN_MOTION":1.03581607,"ECCENTRICITY":0.43457786,"INCLINATION":7.3773,"RA_OF_ASC_NODE":78.9408,"ARG_OF_PERICENTER":76.7813,"MEAN_ANOMALY":327.0304,"EPHEMERIS_TYPE":0,"CLASSIFICATION_TYPE":"U","NORAD_CAT_ID":45987,"ELEMENT_SET_NO":999,"REV_AT_EPOCH":2171,"BSTAR":0,"MEAN_MOTION_DOT":-1.82e-6,"MEAN_MOTION_DDOT":0},{"OBJECT_NAME":"BSAT-4B","OBJECT_ID":"2020-056A","EPOCH":"2026-04-27T02:53:38.567328","MEAN_MOTION":1.00270445,"ECCENTRICITY":0.00031239,"INCLINATION":0.071,"RA_OF_ASC_NODE":107.5878,"ARG_OF_PERICENTER":346.3959,"MEAN_ANOMALY":274.3642,"EPHEMERIS_TYPE":0,"CLASSIFICATION_TYPE":"U","NORAD_CAT_ID":46112,"ELEMENT_SET_NO":999,"REV_AT_EPOCH":2087,"BSTAR":0,"MEAN_MOTION_DOT":-3.6e-6,"MEAN_MOTION_DDOT":0},{"OBJECT_NAME":"MEV-2","OBJECT_ID":"2020-056B","EPOCH":"2026-04-27T05:20:38.796864","MEAN_MOTION":1.00270002,"ECCENTRICITY":0.00012665,"INCLINATION":0.0153,"RA_OF_ASC_NODE":73.7645,"ARG_OF_PERICENTER":0.9311,"MEAN_ANOMALY":219.6436,"EPHEMERIS_TYPE":0,"CLASSIFICATION_TYPE":"U","NORAD_CAT_ID":46113,"ELEMENT_SET_NO":999,"REV_AT_EPOCH":8002,"BSTAR":0,"MEAN_MOTION_DOT":0,"MEAN_MOTION_DDOT":0},{"OBJECT_NAME":"GALAXY 30 (G-30)","OBJECT_ID":"2020-056C","EPOCH":"2026-04-27T00:57:06.743232","MEAN_MOTION":1.00271333,"ECCENTRICITY":0.0002527,"INCLINATION":0.0126,"RA_OF_ASC_NODE":236.3465,"ARG_OF_PERICENTER":172.8147,"MEAN_ANOMALY":55.1468,"EPHEMERIS_TYPE":0,"CLASSIFICATION_TYPE":"U","NORAD_CAT_ID":46114,"ELEMENT_SET_NO":999,"REV_AT_EPOCH":2078,"BSTAR":0,"MEAN_MOTION_DOT":0,"MEAN_MOTION_DDOT":0},{"OBJECT_NAME":"ATLAS 5 CENTAUR DEB","OBJECT_ID":"2018-079CA","EPOCH":"2026-04-25T05:46:02.199072","MEAN_MOTION":1.79056256,"ECCENTRICITY":0.46762586,"INCLINATION":13.4484,"RA_OF_ASC_NODE":43.5475,"ARG_OF_PERICENTER":293.7601,"MEAN_ANOMALY":24.7602,"EPHEMERIS_TYPE":0,"CLASSIFICATION_TYPE":"U","NORAD_CAT_ID":46602,"ELEMENT_SET_NO":999,"REV_AT_EPOCH":3903,"BSTAR":0,"MEAN_MOTION_DOT":-1.04e-6,"MEAN_MOTION_DDOT":0},{"OBJECT_NAME":"ATLAS 5 CENTAUR DEB","OBJECT_ID":"2018-079CC","EPOCH":"2026-04-26T03:51:06.814656","MEAN_MOTION":1.74520059,"ECCENTRICITY":0.46024062,"INCLINATION":13.4001,"RA_OF_ASC_NODE":57.478,"ARG_OF_PERICENTER":262.0612,"MEAN_ANOMALY":45.2077,"EPHEMERIS_TYPE":0,"CLASSIFICATION_TYPE":"U","NORAD_CAT_ID":46604,"ELEMENT_SET_NO":999,"REV_AT_EPOCH":4099,"BSTAR":0,"MEAN_MOTION_DOT":-7.6e-7,"MEAN_MOTION_DDOT":0},{"OBJECT_NAME":"GAOFEN-13 01","OBJECT_ID":"2020-071A","EPOCH":"2026-04-27T11:56:32.240832","MEAN_MOTION":1.0027573,"ECCENTRICITY":0.0042009,"INCLINATION":0.3915,"RA_OF_ASC_NODE":84.9549,"ARG_OF_PERICENTER":122.6784,"MEAN_ANOMALY":305.1685,"EPHEMERIS_TYPE":0,"CLASSIFICATION_TYPE":"U","NORAD_CAT_ID":46610,"ELEMENT_SET_NO":999,"REV_AT_EPOCH":2041,"BSTAR":0,"MEAN_MOTION_DOT":-3.71e-6,"MEAN_MOTION_DDOT":0},{"OBJECT_NAME":"ATLAS 5 CENTAUR DEB","OBJECT_ID":"2018-079CK","EPOCH":"2026-04-26T15:31:25.061376","MEAN_MOTION":1.70496,"ECCENTRICITY":0.57658549,"INCLINATION":12.2409,"RA_OF_ASC_NODE":25.7057,"ARG_OF_PERICENTER":335.4317,"MEAN_ANOMALY":5.6365,"EPHEMERIS_TYPE":0,"CLASSIFICATION_TYPE":"U","NORAD_CAT_ID":46657,"ELEMENT_SET_NO":999,"REV_AT_EPOCH":3445,"BSTAR":0,"MEAN_MOTION_DOT":-1.73e-6,"MEAN_MOTION_DDOT":0},{"OBJECT_NAME":"ATLAS 5 CENTAUR DEB","OBJECT_ID":"2018-079DB","EPOCH":"2026-04-24T22:55:02.526240","MEAN_MOTION":1.71842066,"ECCENTRICITY":0.47233485,"INCLINATION":12.3482,"RA_OF_ASC_NODE":67.3576,"ARG_OF_PERICENTER":258.7823,"MEAN_ANOMALY":46.502,"EPHEMERIS_TYPE":0,"CLASSIFICATION_TYPE":"U","NORAD_CAT_ID":46846,"ELEMENT_SET_NO":999,"REV_AT_EPOCH":3438,"BSTAR":0,"MEAN_MOTION_DOT":-8.5e-7,"MEAN_MOTION_DDOT":0},{"OBJECT_NAME":"ATLAS 5 CENTAUR DEB","OBJECT_ID":"2018-079DC","EPOCH":"2026-04-24T23:00:02.939904","MEAN_MOTION":1.7728473,"ECCENTRICITY":0.47049818,"INCLINATION":13.5147,"RA_OF_ASC_NODE":46.1269,"ARG_OF_PERICENTER":287.04,"MEAN_ANOMALY":27.9633,"EPHEMERIS_TYPE":0,"CLASSIFICATION_TYPE":"U","NORAD_CAT_ID":46847,"ELEMENT_SET_NO":999,"REV_AT_EPOCH":3549,"BSTAR":0,"MEAN_MOTION_DOT":-1.0e-6,"MEAN_MOTION_DDOT":0},{"OBJECT_NAME":"ATLAS 5 CENTAUR DEB","OBJECT_ID":"2018-079DH","EPOCH":"2026-04-26T16:13:17.467968","MEAN_MOTION":1.80930675,"ECCENTRICITY":0.50435923,"INCLINATION":14.0698,"RA_OF_ASC_NODE":28.9875,"ARG_OF_PERICENTER":325.7702,"MEAN_ANOMALY":10.2499,"EPHEMERIS_TYPE":0,"CLASSIFICATION_TYPE":"U","NORAD_CAT_ID":46852,"ELEMENT_SET_NO":999,"REV_AT_EPOCH":2487,"BSTAR":0,"MEAN_MOTION_DOT":-1.58e-6,"MEAN_MOTION_DDOT":0},{"OBJECT_NAME":"ATLAS 5 CENTAUR DEB","OBJECT_ID":"2018-079DN","EPOCH":"2026-04-24T21:37:12.185472","MEAN_MOTION":1.69095455,"ECCENTRICITY":0.46342085,"INCLINATION":12.5264,"RA_OF_ASC_NODE":78.1201,"ARG_OF_PERICENTER":228.678,"MEAN_ANOMALY":81.0779,"EPHEMERIS_TYPE":0,"CLASSIFICATION_TYPE":"U","NORAD_CAT_ID":46857,"ELEMENT_SET_NO":999,"REV_AT_EPOCH":3382,"BSTAR":0,"MEAN_MOTION_DOT":-6.5e-7,"MEAN_MOTION_DDOT":0}]
